start=new Date('2021-11-10T00:00:00.000Z').valueOf();
sats=[{"GP_ID":"189361493","OBJECT_NAME":"STARLINK-1895","TIME_SYSTEM":"UTC","RCS_SIZE":"LARGE","PERIAPSIS":"546.110","MEAN_ELEMENT_THEORY":"SGP4","MEAN_MOTION":"15.06380185","MEAN_ANOMALY":"299.2013","REF_FRAME":"TEME","FILE":"3210180","TLE_LINE2":"2 47175  53.0546 178.7670 0001681  60.9144 299.2013 15.06380185 53837","PERIOD":"95.593","OBJECT_TYPE":"PAYLOAD","MEAN_MOTION_DDOT":"0.0000000000000","APOAPSIS":"548.438","ARG_OF_PERICENTER":"60.9144","DECAY_DATE":null,"SITE":"AFETR","MEAN_MOTION_DOT":"-0.00000504","INCLINATION":"53.0546","REV_AT_EPOCH":"5383","SEMIMAJOR_AXIS":"6925.409","NORAD_CAT_ID":"47175","ECCENTRICITY":"0.00016810","BSTAR":"-0.00001495200000","EPHEMERIS_TYPE":"0","LAUNCH_DATE":"2020-11-25","TLE_LINE1":"1 47175U 20088BF  21313.73971716 -.00000504  00000-0 -14952-4 0  9999","EPOCH":"2021-11-09T17:45:11.562624","CENTER_NAME":"EARTH","OBJECT_ID":"2020-088BF","COUNTRY_CODE":"US","RA_OF_ASC_NODE":"178.7670","CLASSIFICATION_TYPE":"U","ELEMENT_SET_NO":"999"},{"OBJECT_TYPE":"PAYLOAD","PERIOD":"95.591","TLE_LINE2":"2 47177  53.0506 188.5564 0001698  68.4696 291.6474 15.06418182 53701","FILE":"3210180","REF_FRAME":"TEME","MEAN_MOTION":"15.06418182","MEAN_ANOMALY":"291.6474","DECAY_DATE":null,"ARG_OF_PERICENTER":"68.4696","MEAN_MOTION_DDOT":"0.0000000000000","APOAPSIS":"548.334","GP_ID":"189361744","MEAN_ELEMENT_THEORY":"SGP4","PERIAPSIS":"545.982","RCS_SIZE":"LARGE","TIME_SYSTEM":"UTC","OBJECT_NAME":"STARLINK-1907","CENTER_NAME":"EARTH","EPOCH":"2021-11-09T18:58:10.432992","TLE_LINE1":"1 47177U 20088BH  21313.79039853  .00008435  00000-0  58419-3 0  9998","LAUNCH_DATE":"2020-11-25","EPHEMERIS_TYPE":"0","BSTAR":"0.00058419000000","ELEMENT_SET_NO":"999","CLASSIFICATION_TYPE":"U","RA_OF_ASC_NODE":"188.5564","COUNTRY_CODE":"US","OBJECT_ID":"2020-088BH","INCLINATION":"53.0506","REV_AT_EPOCH":"5370","MEAN_MOTION_DOT":"0.00008435","SITE":"AFETR","NORAD_CAT_ID":"47177","ECCENTRICITY":"0.00016980","SEMIMAJOR_AXIS":"6925.293"},{"MEAN_ANOMALY":"297.6811","MEAN_MOTION":"15.06406686","FILE":"3210180","REF_FRAME":"TEME","TLE_LINE2":"2 47178  53.0544 199.2240 0001599  62.4340 297.6811 15.06406686 53532","OBJECT_TYPE":"PAYLOAD","PERIOD":"95.592","MEAN_MOTION_DDOT":"0.0000000000000","APOAPSIS":"548.300","ARG_OF_PERICENTER":"62.4340","DECAY_DATE":null,"GP_ID":"189360492","OBJECT_NAME":"STARLINK-1912","TIME_SYSTEM":"UTC","PERIAPSIS":"546.086","MEAN_ELEMENT_THEORY":"SGP4","RCS_SIZE":"LARGE","BSTAR":"0.00017780000000","EPHEMERIS_TYPE":"0","LAUNCH_DATE":"2020-11-25","TLE_LINE1":"1 47178U 20088BJ  21313.63834727  .00002368  00000-0  17780-3 0  9990","CENTER_NAME":"EARTH","EPOCH":"2021-11-09T15:19:13.204128","COUNTRY_CODE":"US","OBJECT_ID":"2020-088BJ","CLASSIFICATION_TYPE":"U","RA_OF_ASC_NODE":"199.2240","ELEMENT_SET_NO":"999","SITE":"AFETR","MEAN_MOTION_DOT":"0.00002368","REV_AT_EPOCH":"5353","INCLINATION":"53.0544","SEMIMAJOR_AXIS":"6925.328","NORAD_CAT_ID":"47178","ECCENTRICITY":"0.00015990"},{"SITE":"AFETR","INCLINATION":"53.0524","REV_AT_EPOCH":"5342","MEAN_MOTION_DOT":"0.00000842","NORAD_CAT_ID":"47179","ECCENTRICITY":"0.00017590","SEMIMAJOR_AXIS":"6925.358","BSTAR":"0.00007543700000","EPHEMERIS_TYPE":"0","CENTER_NAME":"EARTH","EPOCH":"2021-11-09T19:48:34.150464","LAUNCH_DATE":"2020-11-25","TLE_LINE1":"1 47179U 20088BK  21313.82539526  .00000842  00000-0  75437-4 0  9990","CLASSIFICATION_TYPE":"U","RA_OF_ASC_NODE":"208.3928","COUNTRY_CODE":"US","OBJECT_ID":"2020-088BK","ELEMENT_SET_NO":"999","GP_ID":"189360742","TIME_SYSTEM":"UTC","OBJECT_NAME":"STARLINK-1913","MEAN_ELEMENT_THEORY":"SGP4","PERIAPSIS":"546.005","RCS_SIZE":"LARGE","FILE":"3210180","REF_FRAME":"TEME","MEAN_ANOMALY":"291.5771","MEAN_MOTION":"15.06396882","OBJECT_TYPE":"PAYLOAD","PERIOD":"95.592","TLE_LINE2":"2 47179  53.0524 208.3928 0001759  68.5406 291.5771 15.06396882 53426","APOAPSIS":"548.441","MEAN_MOTION_DDOT":"0.0000000000000","DECAY_DATE":null,"ARG_OF_PERICENTER":"68.5406"},{"GP_ID":"189361994","PERIAPSIS":"546.146","MEAN_ELEMENT_THEORY":"SGP4","RCS_SIZE":"LARGE","OBJECT_NAME":"STARLINK-1927","TIME_SYSTEM":"UTC","TLE_LINE2":"2 47181  53.0535 178.5113 0001460  84.8233 275.2922 15.06418272 53844","OBJECT_TYPE":"PAYLOAD","PERIOD":"95.591","MEAN_MOTION":"15.06418272","MEAN_ANOMALY":"275.2922","FILE":"3210180","REF_FRAME":"TEME","ARG_OF_PERICENTER":"84.8233","DECAY_DATE":null,"MEAN_MOTION_DDOT":"0.0000000000000","APOAPSIS":"548.169","MEAN_MOTION_DOT":"0.00004220","INCLINATION":"53.0535","REV_AT_EPOCH":"5384","SITE":"AFETR","SEMIMAJOR_AXIS":"6925.293","ECCENTRICITY":"0.00014600","NORAD_CAT_ID":"47181","TLE_LINE1":"1 47181U 20088BM  21313.79867818  .00004220  00000-0  30187-3 0  9993","LAUNCH_DATE":"2020-11-25","CENTER_NAME":"EARTH","EPOCH":"2021-11-09T19:10:05.794752","BSTAR":"0.00030187000000","EPHEMERIS_TYPE":"0","ELEMENT_SET_NO":"999","COUNTRY_CODE":"US","OBJECT_ID":"2020-088BM","CLASSIFICATION_TYPE":"U","RA_OF_ASC_NODE":"178.5113"},{"PERIOD":"91.633","OBJECT_TYPE":"PAYLOAD","TLE_LINE2":"2 47349  53.0501 292.2915 0003727  20.1868 339.9296 15.71492652 45122","REF_FRAME":"TEME","FILE":"3210180","MEAN_ANOMALY":"339.9296","MEAN_MOTION":"15.71492652","DECAY_DATE":null,"ARG_OF_PERICENTER":"20.1868","APOAPSIS":"357.142","MEAN_MOTION_DDOT":"0.0000000000000","GP_ID":"189362012","RCS_SIZE":"LARGE","MEAN_ELEMENT_THEORY":"SGP4","PERIAPSIS":"352.123","TIME_SYSTEM":"UTC","OBJECT_NAME":"STARLINK-1952","EPOCH":"2021-11-09T15:45:17.692128","CENTER_NAME":"EARTH","TLE_LINE1":"1 47349U 21005A   21313.65645477  .00006676  00000-0  55743-4 0  9992","LAUNCH_DATE":"2021-01-20","EPHEMERIS_TYPE":"0","BSTAR":"0.00005574300000","ELEMENT_SET_NO":"999","RA_OF_ASC_NODE":"292.2915","CLASSIFICATION_TYPE":"U","OBJECT_ID":"2021-005A","COUNTRY_CODE":"US","INCLINATION":"53.0501","REV_AT_EPOCH":"4512","MEAN_MOTION_DOT":"0.00006676","SITE":"AFETR","NORAD_CAT_ID":"47349","ECCENTRICITY":"0.00037270","SEMIMAJOR_AXIS":"6732.767"},{"GP_ID":"189337011","OBJECT_NAME":"STARLINK-2011","TIME_SYSTEM":"UTC","PERIAPSIS":"546.212","MEAN_ELEMENT_THEORY":"SGP4","RCS_SIZE":"LARGE","MEAN_ANOMALY":"292.3105","MEAN_MOTION":"15.06405921","FILE":"3210161","REF_FRAME":"TEME","TLE_LINE2":"2 47350  53.0467 320.1758 0001420  67.8034 292.3105 15.06405921 44718","OBJECT_TYPE":"PAYLOAD","PERIOD":"95.592","APOAPSIS":"548.179","MEAN_MOTION_DDOT":"0.0000000000000","ARG_OF_PERICENTER":"67.8034","DECAY_DATE":null,"SITE":"AFETR","MEAN_MOTION_DOT":"0.00002536","INCLINATION":"53.0467","REV_AT_EPOCH":"4471","SEMIMAJOR_AXIS":"6925.330","NORAD_CAT_ID":"47350","ECCENTRICITY":"0.00014200","EPHEMERIS_TYPE":"0","BSTAR":"0.00018908000000","TLE_LINE1":"1 47350U 21005B   21313.43928960  .00002536  00000-0  18908-3 0  9993","LAUNCH_DATE":"2021-01-20","CENTER_NAME":"EARTH","EPOCH":"2021-11-09T10:32:34.621440","COUNTRY_CODE":"US","OBJECT_ID":"2021-005B","CLASSIFICATION_TYPE":"U","RA_OF_ASC_NODE":"320.1758","ELEMENT_SET_NO":"999"},{"TLE_LINE1":"1 47351U 21005C   21313.60150419  .00001986  00000-0  15229-3 0  9990","LAUNCH_DATE":"2021-01-20","CENTER_NAME":"EARTH","EPOCH":"2021-11-09T14:26:09.962016","BSTAR":"0.00015229000000","EPHEMERIS_TYPE":"0","ELEMENT_SET_NO":"999","COUNTRY_CODE":"US","OBJECT_ID":"2021-005C","CLASSIFICATION_TYPE":"U","RA_OF_ASC_NODE":"279.3916","MEAN_MOTION_DOT":"0.00001986","INCLINATION":"53.0523","REV_AT_EPOCH":"4529","SITE":"AFETR","SEMIMAJOR_AXIS":"6925.403","NORAD_CAT_ID":"47351","ECCENTRICITY":"0.00018180","TLE_LINE2":"2 47351  53.0523 279.3916 0001818  65.3535 294.7643 15.06382248 45296","OBJECT_TYPE":"PAYLOAD","PERIOD":"95.593","MEAN_MOTION":"15.06382248","MEAN_ANOMALY":"294.7643","FILE":"3210180","REF_FRAME":"TEME","ARG_OF_PERICENTER":"65.3535","DECAY_DATE":null,"APOAPSIS":"548.527","MEAN_MOTION_DDOT":"0.0000000000000","GP_ID":"189361011","PERIAPSIS":"546.009","MEAN_ELEMENT_THEORY":"SGP4","RCS_SIZE":"LARGE","OBJECT_NAME":"STARLINK-2017","TIME_SYSTEM":"UTC"},{"PERIAPSIS":"546.245","MEAN_ELEMENT_THEORY":"SGP4","RCS_SIZE":"LARGE","TIME_SYSTEM":"UTC","OBJECT_NAME":"STARLINK-2034","GP_ID":"189338013","DECAY_DATE":null,"ARG_OF_PERICENTER":"74.8041","MEAN_MOTION_DDOT":"0.0000000000000","APOAPSIS":"548.105","OBJECT_TYPE":"PAYLOAD","PERIOD":"95.591","TLE_LINE2":"2 47352  53.0551 319.9082 0001343  74.8041 285.3097 15.06412449 44715","FILE":"3210161","REF_FRAME":"TEME","MEAN_MOTION":"15.06412449","MEAN_ANOMALY":"285.3097","NORAD_CAT_ID":"47352","ECCENTRICITY":"0.00013430","SEMIMAJOR_AXIS":"6925.310","INCLINATION":"53.0551","REV_AT_EPOCH":"4471","MEAN_MOTION_DOT":"0.00006708","SITE":"AFETR","ELEMENT_SET_NO":"999","CLASSIFICATION_TYPE":"U","RA_OF_ASC_NODE":"319.9082","COUNTRY_CODE":"US","OBJECT_ID":"2021-005D","CENTER_NAME":"EARTH","EPOCH":"2021-11-09T11:41:36.131136","TLE_LINE1":"1 47352U 21005D   21313.48722374  .00006708  00000-0  46861-3 0  9995","LAUNCH_DATE":"2021-01-20","BSTAR":"0.00046861000000","EPHEMERIS_TYPE":"0"},{"EPHEMERIS_TYPE":"0","BSTAR":"0.00062454000000","CENTER_NAME":"EARTH","EPOCH":"2021-11-09T13:48:19.262880","LAUNCH_DATE":"2021-01-20","TLE_LINE1":"1 47353U 21005E   21313.57522295  .00009038  00000-0  62454-3 0  9991","CLASSIFICATION_TYPE":"U","RA_OF_ASC_NODE":"264.5053","COUNTRY_CODE":"US","OBJECT_ID":"2021-005E","ELEMENT_SET_NO":"999","SITE":"AFETR","INCLINATION":"53.0544","REV_AT_EPOCH":"4550","MEAN_MOTION_DOT":"0.00009038","NORAD_CAT_ID":"47353","ECCENTRICITY":"0.00012600","SEMIMAJOR_AXIS":"6925.287","FILE":"3210161","REF_FRAME":"TEME","MEAN_ANOMALY":"271.3164","MEAN_MOTION":"15.06419946","OBJECT_TYPE":"PAYLOAD","PERIOD":"95.591","TLE_LINE2":"2 47353  53.0544 264.5053 0001260  88.7969 271.3164 15.06419946 45509","MEAN_MOTION_DDOT":"0.0000000000000","APOAPSIS":"548.025","DECAY_DATE":null,"ARG_OF_PERICENTER":"88.7969","GP_ID":"189338264","TIME_SYSTEM":"UTC","OBJECT_NAME":"STARLINK-2045","MEAN_ELEMENT_THEORY":"SGP4","PERIAPSIS":"546.280","RCS_SIZE":"LARGE"}];
